[
    {
        "Altitude(m)": 611965.2348537246,
        "Argument of Periapsis(deg)": 0.0,
        "Eccentricity": 0.0,
        "Inclination(deg)": 60.0,
        "Latitude(deg)": 59.140311604936784,
        "Longitude(deg)": 78.9697505242841,
        "Mean Anomaly(deg)": 81.8182,
        "RAAN(deg)": 105.0,
        "Satellite Name": "Test1 467",
        "Satellite Number": 467,
        "Semi-Major Axis(m)": 6980739.136638005,
        "Time(s)": 0
    },
    {
        "Altitude(m)": 611995.8604786496,
        "Argument of Periapsis(deg)": 0.00010418945913296404,
        "Eccentricity": 0.0,
        "Inclination(deg)": 60.0,
        "Latitude(deg)": 59.283412356097,
        "Longitude(deg)": 80.10311731156197,
        "Mean Anomaly(deg)": 82.43830614546182,
        "RAAN(deg)": 104.99957995086028,
        "Satellite Name": "Test1 467",
        "Satellite Number": 467,
        "Semi-Major Axis(m)": 6980739.136638005,
        "Time(s)": 10
    }
]